NORAD_CAT_ID,OBJECT_NAME,OBJECT_TYPE,EPOCH,MEAN_MOTION,ECCENTRICITY,INCLINATION,RA_OF_ASC_NODE,ARG_OF_PERICENTER,MEAN_ANOMALY,BSTAR,MEAN_MOTION_DOT,MEAN_MOTION_DDOT,TLE_LINE0,TLE_LINE1,TLE_LINE2,SEMIMAJOR_AXIS,PERIOD,APOGEE,PERIGEE,DECAYED
52622.0,STARLINK-4008,PAYLOAD,2022-07-22 04:00:00,15.0881383,0.0001545,53.2171,119.1005,60.3988,240.0407,0.001249,0.00019631,0.0,0 STARLINK-4008,1 52622U 22052AA  22203.16667824  .00019631  00000-0  12490-2 0  9995,2 52622  53.2171 119.1005 0001545  60.3988 240.0407 15.08813830 10908,6917.96,95.439,540.894,538.757,0.0
52622.0,STARLINK-4008,PAYLOAD,2022-07-22 06:00:00,15.08806785,0.0001479,53.2169,118.7264,58.608,334.7271,0.0024275,0.00038522,0.0,0 STARLINK-4008,1 52622U 22052AA  22203.25001157  .00038522  00000-0  24275-2 0  9990,2 52622  53.2169 118.7264 0001479  58.6080 334.7271 15.08806785  1301,6917.982,95.44,540.87,538.8240000000002,0.0
52622.0,STARLINK-4008,PAYLOAD,2022-07-22 22:00:00,15.08861711,0.0001421,53.2175,115.7328,66.1289,350.3702,-0.0010272999999999,-0.0001661,0.0,0 STARLINK-4008,1 52622U 22052AA  22203.91667824 -.00016610  00000-0 -10273-2 0  9991,2 52622  53.2175 115.7328 0001421  66.1289 350.3702 15.08861711  1301,6917.814,95.436,540.6619999999998,538.696,0.0
52622.0,STARLINK-4008,PAYLOAD,2022-07-23 14:00:01,15.08813998,0.0001274999999999,53.2177,112.7392,66.8919,12.875,0.0015703,0.00024774,0.0,0 STARLINK-4008,1 52622U 22052AA  22204.58335648  .00024774  00000-0  15703-2 0  9992,2 52622  53.2177 112.7392 0001275  66.8919  12.8750 15.08813998  1302,6917.96,95.439,540.707,538.943,0.0
52622.0,STARLINK-4008,PAYLOAD,2022-07-23 22:00:00,15.08871931,0.0001636999999999,53.2179,111.2438,79.9211,11.4612,-0.0042906,-0.00067988,0.0,0 STARLINK-4008,1 52622U 22052AA  22204.91667824 -.00067988  00000-0 -42906-2 0  9994,2 52622  53.2179 111.2438 0001637  79.9211  11.4612 15.08871931  1304,6917.783,95.436,540.78,538.515,0.0
52622.0,STARLINK-4008,PAYLOAD,2022-07-24 14:00:01,15.08788435,0.0001529,53.2177,108.2504,83.5964,30.9559,0.0029646,0.00047143,0.0,0 STARLINK-4008,1 52622U 22052AA  22205.58334491  .00047143  00000-0  29646-2 0  9994,2 52622  53.2177 108.2504 0001529  83.5964  30.9559 15.08788435  1300,6918.038000000001,95.441,540.961,538.845,0.0
52622.0,STARLINK-4008,PAYLOAD,2022-07-24 22:00:00,15.088289199999998,0.000162,53.2178,106.7553,80.6742,45.426,-0.0016062,-0.00025752,0.0,0 STARLINK-4008,1 52622U 22052AA  22205.91667824 -.00025752  00000-0 -16062-2 0  9992,2 52622  53.2178 106.7553 0001620  80.6742  45.4260 15.08828920  1306,6917.9140000000025,95.438,540.9,538.659,0.0
52622.0,STARLINK-4008,PAYLOAD,2022-07-25 04:00:01,15.08797792,0.0001633,53.2177,105.634,75.9264,328.9218,0.0029539,0.00046983,0.0,0 STARLINK-4008,1 52622U 22052AA  22206.16668981  .00046983  00000-0  29539-2 0  9995,2 52622  53.2177 105.6340 0001633  75.9264 328.9218 15.08797792 11357,6918.009,95.44,541.004,538.745,0.0
52622.0,STARLINK-4008,PAYLOAD,2022-07-25 14:00:01,15.0880446,0.0001561,53.2175,103.7618,85.6515,63.5999,0.002769,0.00044013,0.0,0 STARLINK-4008,1 52622U 22052AA  22206.58334491  .00044013  00000-0  27690-2 0  9995,2 52622  53.2175 103.7618 0001561  85.6515  63.5999 15.08804460  1302,6917.989000000001,95.44,540.934,538.774,0.0
52622.0,STARLINK-4008,PAYLOAD,2022-07-25 20:00:01,15.08847415,0.0001633,53.2177,102.6405,84.8193,343.1019,-0.0015667,-0.00025141,0.0,0 STARLINK-4008,1 52622U 22052AA  22206.83334491 -.00025141  00000-0 -15667-2 0  9997,2 52622  53.2177 102.6405 0001633  84.8193 343.1019 15.08847415 11453,6917.858,95.437,540.852,538.5930000000002,0.0
52622.0,STARLINK-4008,PAYLOAD,2022-07-25 22:00:00,15.08842339,0.0001643,53.2176,102.2669,82.1933,78.6285,-0.0014171,-0.00022772,0.0,0 STARLINK-4008,1 52622U 22052AA  22206.91667824 -.00022772  00000-0 -14171-2 0  9991,2 52622  53.2176 102.2669 0001643  82.1933  78.6285 15.08842339  1302,6917.873000000001,95.437,540.875,538.602,0.0
52622.0,STARLINK-4008,PAYLOAD,2022-07-26 12:00:00,15.08823919,0.000159,53.2174,99.6475,86.0083,5.0976,0.0016120999999999,0.0002545,0.0,0 STARLINK-4008,1 52622U 22052AA  22207.50001157  .00025450  00000-0  16121-2 0  9999,2 52622  53.2174  99.6475 0001590  86.0083   5.0976 15.08823919 11556,6917.93,95.439,540.894,538.695,0.0
52622.0,STARLINK-4008,PAYLOAD,2022-07-26 14:00:01,15.088192,0.0001608,53.2171,99.2732,86.9805,97.0239,0.0026474,0.00042073,0.0,0 STARLINK-4008,1 52622U 22052AA  22207.58334491  .00042073  00000-0  26474-2 0  9999,2 52622  53.2171  99.2732 0001608  86.9805  97.0239 15.08819200  1309,6917.944,95.439,540.9209999999998,538.697,0.0
52622.0,STARLINK-4008,PAYLOAD,2022-07-26 22:00:00,15.08853618,0.0001674,53.2173,97.7783,82.5829,113.0118,-0.0011577999999999,-0.00018674,0.0,0 STARLINK-4008,1 52622U 22052AA  22207.91667824 -.00018674  00000-0 -11578-2 0  9996,2 52622  53.2173  97.7783 0001674  82.5829 113.0118 15.08853618  1307,6917.839,95.437,540.862,538.5459999999998,0.0
52622.0,STARLINK-4008,PAYLOAD,2022-07-27 12:00:00,15.0882234,0.000152,53.2172,95.1586,85.8648,40.0484,0.00069582,0.00010798,0.0,0 STARLINK-4008,1 52622U 22052AA  22208.50001157  .00010798  00000-0  69582-3 0  9999,2 52622  53.2172  95.1586 0001520  85.8648  40.0484 15.08822340 11702,6917.934,95.439,540.851,538.748,0.0
52622.0,STARLINK-4008,PAYLOAD,2022-07-27 14:00:01,15.08812954,0.000153,53.217,94.7842,86.8478,131.9631,0.0021234,0.00033643,0.0,0 STARLINK-4008,1 52622U 22052AA  22208.58334491  .00033643  00000-0  21234-2 0  9992,2 52622  53.2170  94.7842 0001530  86.8478 131.9631 15.08812954  1302,6917.9630000000025,95.439,540.887,538.77,0.0
52622.0,STARLINK-4008,PAYLOAD,2022-07-27 22:00:00,15.08839363,0.0001612,53.2171,93.2895,81.2096,149.1807,-0.00091956,-0.00014893,0.0,0 STARLINK-4008,1 52622U 22052AA  22208.91667824 -.00014893  00000-0 -91956-3 0  9995,2 52622  53.2171  93.2895 0001612  81.2096 149.1807 15.08839363  1300,6917.882,95.438,540.862,538.632,0.0
52622.0,STARLINK-4008,PAYLOAD,2022-07-28 14:00:01,15.0882732,0.0001558,53.2172,90.2951,86.4314,167.1433,0.0022430999999999,0.00035579,0.0,0 STARLINK-4008,1 52622U 22052AA  22209.58334491  .00035579  00000-0  22431-2 0  9993,2 52622  53.2172  90.2951 0001558  86.4314 167.1433 15.08827320  1305,6917.919,95.438,540.862,538.706,0.0
52622.0,STARLINK-4008,PAYLOAD,2022-07-28 20:00:01,15.08869004,0.0001573,53.2174,89.17399999999998,83.1295,89.1364,-0.0043672,-0.0006917999999999,0.0,0 STARLINK-4008,1 52622U 22052AA  22209.83334491 -.00069180  00000-0 -43672-2 0  9998,2 52622  53.2174  89.1740 0001573  83.1295  89.1364 15.08869004 11907,6917.792,95.436,540.745,538.569,0.0
52622.0,STARLINK-4008,PAYLOAD,2022-07-28 22:00:00,15.08847382,0.0001575,53.2172,88.8004,79.7709,185.403,-0.0026746,-0.00042611,0.0,0 STARLINK-4008,1 52622U 22052AA  22209.91667824 -.00042611  00000-0 -26746-2 0  9999,2 52622  53.2172  88.8004 0001575  79.7709 185.4030 15.08847382  1305,6917.858,95.437,540.812,538.633,0.0
52622.0,STARLINK-4008,PAYLOAD,2022-07-29 04:00:00,15.08812749,0.0001526,53.2172,87.6785,75.1729,108.6929,0.0020235,0.00032039,0.0,0 STARLINK-4008,1 52622U 22052AA  22210.16667824  .00032039  00000-0  20235-2 0  9996,2 52622  53.2172  87.6785 0001526  75.1729 108.6929 15.08812749 11951,6917.964,95.439,540.884,538.773,0.0
52622.0,STARLINK-4008,PAYLOAD,2022-07-29 14:00:01,15.08811939,0.000151,53.2175,85.806,85.8183,202.5228,0.0026825,0.0004263,0.0,0 STARLINK-4008,1 52622U 22052AA  22210.58334491  .00042630  00000-0  26825-2 0  9992,2 52622  53.2175  85.8060 0001510  85.8183 202.5228 15.08811939  1309,6917.965999999999,95.439,540.876,538.7869999999998,0.0
52622.0,STARLINK-4008,PAYLOAD,2022-07-29 20:00:01,15.08846178,0.0001561,53.2176,84.685,81.7631,125.2576,-0.0014754,-0.00023696,0.0,0 STARLINK-4008,1 52622U 22052AA  22210.83334491 -.00023696  00000-0 -14754-2 0  9991,2 52622  53.2176  84.6850 0001561  81.7631 125.2576 15.08846178 12068,6917.861999999999,95.437,540.806,538.6469999999998,0.0
52622.0,STARLINK-4008,PAYLOAD,2022-07-29 22:00:00,15.08838376,0.0001588,53.2175,84.3113,78.8561,221.0652,-0.0007434999999999,-0.00012101,0.0,0 STARLINK-4008,1 52622U 22052AA  22210.91667824 -.00012101  00000-0 -74350-3 0  9997,2 52622  53.2175  84.3113 0001588  78.8561 221.0652 15.08838376  1300,6917.885,95.438,540.849,538.6519999999998,0.0
52622.0,STARLINK-4008,PAYLOAD,2022-07-30 12:00:00,15.08820614,0.0001504,53.2176,81.6911,85.3983,144.8163,0.0026826,0.00042641,0.0,0 STARLINK-4008,1 52622U 22052AA  22211.50001157  .00042641  00000-0  26826-2 0  9998,2 52622  53.2176  81.6911 0001504  85.3983 144.8163 15.08820614 12167,6917.94,95.439,540.845,538.764,0.0
52622.0,STARLINK-4008,PAYLOAD,2022-07-30 14:00:01,15.08826628,0.0001544,53.2177,81.3169,87.0343,236.0756,0.0025570999999999,0.00040628,0.0,0 STARLINK-4008,1 52622U 22052AA  22211.58334491  .00040628  00000-0  25571-2 0  9995,2 52622  53.2177  81.3169 0001544  87.0343 236.0756 15.08826628  1300,6917.920999999999,95.438,540.854,538.7180000000002,0.0
52622.0,STARLINK-4008,PAYLOAD,2022-07-30 22:00:00,15.0885085,0.0001595,53.2177,79.8222,79.5089,255.1989,-0.0006718,-0.00010967,0.0,0 STARLINK-4008,1 52622U 22052AA  22211.91667824 -.00010967  00000-0 -67180-3 0  9999,2 52622  53.2177  79.8222 0001595  79.5089 255.1989 15.08850850  1305,6917.847,95.437,540.816,538.609,0.0
52622.0,STARLINK-4008,PAYLOAD,2022-07-31 04:00:00,15.08857775,0.000152,53.2174,78.6999,77.8348,175.5725,-0.00098687,-0.00015967,0.0,0 STARLINK-4008,1 52622U 22052AA  22212.16667824 -.00015967  00000-0 -98687-3 0  9998,2 52622  53.2174  78.6999 0001520  77.8348 175.5725 15.08857775 12260,6917.826,95.436,540.743,538.64,0.0
52622.0,STARLINK-4008,PAYLOAD,2022-07-31 14:00:01,15.08813522,0.0001423,53.2177,76.8276,89.1603,268.7625,0.0023413,0.00037143,0.0,0 STARLINK-4008,1 52622U 22052AA  22212.58334491  .00037143  00000-0  23413-2 0  9997,2 52622  53.2177  76.8276 0001423  89.1603 268.7625 15.08813522  1302,6917.9609999999975,95.439,540.811,538.842,0.0
